ONEWEB-0379             
1 49305U 21090AC  26014.27992699  .00000159  00000+0  39456-3 0  9993
2 49305  87.9023 320.3771 0001810  75.2234 284.9097 13.14504813207343
ONEWEB-0380             
1 49306U 21090AD  26014.42867833 -.00000013  00000+0 -65383-4 0  9992
2 49306  87.9231 335.5710 0001948  86.3639 273.7717 13.19726089206148
ONEWEB-0381             
1 49307U 21090AE  26014.29626636  .00000135  00000+0  30099-3 0  9990
2 49307  87.9228 305.1383 0001960  78.1591 281.9762 13.20769757209510
ONEWEB-0382             
1 49308U 21090AF  26014.20789330  .00000085  00000+0  17633-3 0  9996
2 49308  87.9233 305.1520 0002058  74.6410 285.4950 13.20772269209497
ONEWEB-0383             
1 49309U 21090AG  26014.34970982  .00000030  00000+0  45392-4 0  9991
2 49309  87.9026 320.3485 0001891  74.0837 286.0501 13.14503381207383
ONEWEB-0384             
1 49310U 21090AH  26014.35210844  .00000048  00000+0  85612-4 0  9996
2 49310  87.9242 305.1620 0002249  70.5427 289.5949 13.20802566209527
ONEWEB-0385             
1 49311U 21090AJ  26014.35150652  .00000009  00000+0 -10852-4 0  9999
2 49311  87.9231 305.1276 0001870  77.0424 283.0918 13.20769745209493
ONEWEB-0386             
1 49312U 21090AK  26014.29312205  .00000122  00000+0  26850-3 0  9996
2 49312  87.9230 305.1242 0001991  73.7630 286.3722 13.20773055209502
